304P/Ory,e,2.6065,58.9402,335.2515,3.150496,0.1762526,0.60102652,207.7346,11/05.0/2023,2000,g 16.5,4.0
# From MPC101100
305P/Skiff,e,11.6667,240.1468,147.3609,4.637468,0.0986922,0.69402769,322.6846,11/05.0/2023,2000,g 18.0,4.0
# From MPC 92278
306P/LINEAR,e,8.3065,341.3778,0.8893,3.124346,0.1784701,0.59290301,246.5835,11/05.0/2023,2000,g 19.0,4.0
# From MPC 92278
307P/LINEAR,e,4.4374,158.1814,222.1743,5.788446,0.0707719,0.67556438,228.8800,11/05.0/2023,2000,g 15.0,4.0
# From MPEC 2022-C56
308P/Lagerkvist-Carsenty,e,4.8532,63.0966,333.6709,6.599271,0.0581380,0.36476009,180.0733,11/05.0/2023,2000,g 13.0,2.0
# From MPEC 2023-V39
309P/LINEAR,e,17.0235,10.1447,49.9290,4.375600,0.1076831,0.61842205,344.3827,11/05.0/2023,2000,g 15.0,4.0
# From MPEC 2023-V39
310P/Hill,e,13.1221,8.9172,31.6061,4.188536,0.1149769,0.42301999,1.4196,11/05.0/2023,2000,g 13.5,4.0
# From MPEC 2023-V39
311P/PANSTARRS,e,4.9698,279.1820,144.3041,2.189103,0.3043019,0.11598563,342.3362,11/05.0/2023,2000,g 17.0,4.0
# From MPEC 2021-BE3
312P/NEAT,e,19.7616,144.7058,207.6517,3.470610,0.1524387,0.42737714,173.1523,11/05.0/2023,2000,g 16.0,4.0
# From MPEC 2021-S45
313P/Gibbs,e,10.9802,106.0053,254.8515,3.164173,0.1751111,0.23482435,227.2069,11/05.0/2023,2000,g 15.0,4.0
# From MPC105243
314P/Montani,e,3.9892,267.6120,213.8643,7.253622,0.0504512,0.41746821,130.3156,11/05.0/2023,2000,g  9.5,4.0
# From MPEC 2023-J29
315P/LONEOS,e,17.7326,68.7219,65.7742,4.939413,0.0897824,0.52134295,227.7239,11/05.0/2023,2000,g 11.0,4.0
# From MPC 92279
316P/LONEOS-Christensen,e,9.8189,192.2359,243.8151,4.411197,0.1063823,0.15754917,322.0843,11/05.0/2023,2000,g 13.5,4.0
# From MPEC 2020-C98
317P/WISE,e,11.9611,275.4694,334.8191,2.961741,0.1933675,0.57099172,219.5304,11/05.0/2023,2000,g 17.5,4.0
# From MPC102103
318P/McNaught-Hartley,e,17.8758,35.5570,313.3183,7.508308,0.0479061,0.67460943,140.4568,11/05.0/2023,2000,g  8.5,6.0
# From MPC 97499
319P/Catalina-McNaught,e,15.0945,111.3454,203.6665,3.564066,0.1464824,0.66639386,85.5051,11/05.0/2023,2000,g 15.0,4.0
# From MPC 96281
320P/McNaught,e,4.9044,295.9426,0.7860,3.094808,0.1810313,0.68493782,185.1008,11/05.0/2023,2000,g 20.5,4.0
# From MPC105243
321P/SOHO,e,20.0790,165.0111,172.7499,2.422769,0.2613581,0.98106172,0.0000,10/26.6101/2023,2000,g 20.0,4.0
# From MPC102103
322P/SOHO,e,11.4744,351.5145,56.9011,2.507755,0.2481855,0.97998271,0.0000,08/21.0870/2023,2000,g 19.0,4.0
# From MPEC 2016-Y36
323P/SOHO,e,5.3114,324.3744,353.0642,2.583374,0.2373685,0.98468255,0.0000,03/14.4730/2025,2000,g 20.0,4.0
# From MPEC 2021-W31
324P/LaSagra,e,21.4003,270.5803,57.5578,3.095269,0.1809908,0.15337126,165.4596,11/05.0/2023,2000,g 13.0,4.0
# From MPEC 2022-TA0
325P/Yang-Gao,e,16.7410,257.2996,344.2901,3.537845,0.1481139,0.59284840,86.7601,11/05.0/2023,2000,g 14.0,4.0
# From MPEC 2023-V39
326P/Hill,e,2.4711,99.8007,278.6527,4.066242,0.1202027,0.31884551,353.3330,11/05.0/2023,2000,g 13.5,4.0
# From MPEC 2023-T65
327P/VanNess,e,36.2495,173.9859,185.0302,3.562074,0.1466053,0.56304362,62.8440,11/05.0/2023,2000,g 16.0,4.0
# From MPC109148
328P/LONEOS-Tucker,e,17.6749,341.6538,30.5969,4.188653,0.1149721,0.55270254,329.4222,11/05.0/2023,2000,g 14.5,4.0
# From MPC101101
329P/LINEAR-Catalina,e,21.7088,87.6852,343.5423,5.186222,0.0834502,0.67864196,241.4657,11/05.0/2023,2000,g 13.5,4.0
# From MPEC 2023-J29
330P/Catalina,e,15.7225,293.0793,188.8225,6.619440,0.0578725,0.54953586,151.9869,11/05.0/2023,2000,g 12.0,4.0
# From MPEC 2023-KD6
331P/Gibbs,e,9.7403,216.7526,184.8003,3.004694,0.1892360,0.04144921,212.9999,11/05.0/2023,2000,g 12.0,4.0
# From MPEC 2016-K18
332P/Ikeya-Murakami,e,9.3812,3.7648,152.2949,3.087109,0.1817089,0.48934536,146.9663,11/05.0/2023,2000,g 18.0,4.0
# From MPEC 2016-K18
332P-A/Ikeya-Murakami,e,9.3816,152.3100,3.7498,3.087106,0.1817091,0.48934777,146.9660,11/05.0/2023,2000,g  9.0,4.0
# From MPEC 2016-EI8
332P-B/Ikeya-Murakami,e,9.3805,3.8028,152.3711,3.082329,0.1821317,0.48970701,359.9699,03/17.0/2016,2000,g 19.0,4.0
# From MPEC 2016-K18
332P-C/Ikeya-Murakami,e,9.3806,152.3013,3.7502,3.087072,0.1817121,0.48935331,146.9826,11/05.0/2023,2000,g 16.5,4.0
# From MPEC 2016-ED0
332P-D/Ikeya-Murakami,e,9.3761,3.7923,152.4393,3.081138,0.1822373,0.48977814,359.9486,03/17.0/2016,2000,g 19.0,4.0
# From MPEC 2016-ED0
332P-E/Ikeya-Murakami,e,9.3774,3.8228,152.2825,3.079877,0.1823493,0.48922008,359.9889,03/17.0/2016,2000,g 21.0,4.0
# From MPEC 2016-ED0
332P-F/Ikeya-Murakami,e,9.5293,3.4757,152.8203,3.163214,0.1751908,0.49918860,359.8501,03/17.0/2016,2000,g 21.0,4.0
# From MPEC 2016-ED0
332P-G/Ikeya-Murakami,e,9.2523,3.6955,154.4000,3.050519,0.1849880,0.49200362,359.9006,03/19.0/2016,2000,g 19.0,4.0
# From MPC100285
332P-H/Ikeya-Murakami,e,9.3812,152.3019,3.7500,3.087254,0.1816960,0.48938888,146.9044,11/05.0/2023,2000,g 19.0,4.0
# From MPEC 2016-ED0
332P-I/Ikeya-Murakami,e,9.3791,3.8048,152.3297,3.081767,0.1821815,0.48955490,359.9360,03/17.0/2016,2000,g 20.5,2.0
# From MPEC 2016-EI8
332P-J/Ikeya-Murakami,e,9.4296,3.6729,152.7712,3.115165,0.1792596,0.49429435,359.8613,03/17.0/2016,2000,g 20.5,2.0
# From MPEC 2020-L06
333P/LINEAR,e,31.9846,115.5750,25.9825,4.226280,0.1134401,0.73663689,315.7787,11/05.0/2023,2000,g 15.0,4.0
# From MPEC 2023-J29
334P/NEAT,e,20.3821,90.5204,90.0494,6.832119,0.0551913,0.35079964,129.4806,11/05.0/2023,2000,g 10.5,4.0
# From MPEC 2023-M14
335P/Gibbs,e,7.2931,330.8301,162.2968,3.577994,0.1456279,0.54636089,65.5285,11/05.0/2023,2000,g 16.8,4.0
# From MPC105244
336P/McNaught,e,17.8237,298.2194,308.6754,5.037504,0.0871728,0.44378217,215.5340,11/05.0/2023,2000,g 13.5,4.0
# From MPEC 2023-UR6
337P/WISE,e,15.3885,105.7531,161.4777,3.293108,0.1649283,0.49770672,81.0125,11/05.0/2023,2000,g 17.0,4.0
# From MPEC 2023-J29
338P/McNaught,e,25.3863,9.7951,4.5599,3.892037,0.1283626,0.41213677,325.0920,11/05.0/2023,2000,g 12.0,4.0
# From MPC101101
339P/Gibbs,e,5.7332,27.4789,172.7014,3.700791,0.1384402,0.63568131,9.1452,11/05.0/2023,2000,g 17.0,4.0
# From MPC133426
340P/Boattini,e,2.0782,291.6810,36.0351,4.249239,0.1125220,0.28050376,285.3914,11/05.0/2023,2000,g 14.3,4.0
# From MPEC 2023-J29
341P/Gibbs,e,3.7969,29.9667,312.3130,4.288804,0.1109685,0.41557866,300.6855,11/05.0/2023,2000,g 12.5,4.0
# From MPC101101
342P/SOHO,e,11.6889,73.3075,27.6484,3.041137,0.1858446,0.98287479,0.0000,10/19.3215/2021,2000,g  9.0,4.0
# From MPEC 2023-J29
343P/NEAT-LONEOS,e,5.5949,257.0740,137.5511,5.457441,0.0773073,0.58530899,190.7408,11/05.0/2023,2000,g 14.0,4.0
# From MPEC 2023-J29
344P/Read,e,3.4975,273.1039,140.5159,4.858824,0.0920253,0.42365217,235.0918,11/05.0/2023,2000,g 13.0,4.0
# From MPEC 2022-K19
345P/LINEAR,e,2.7278,154.5969,196.6270,4.032579,0.1217110,0.22136438,323.5162,11/05.0/2023,2000,g 12.0,4.0
# From MPEC 2022-K19
346P/Catalina,e,22.2131,102.4528,335.9911,4.471637,0.1042328,0.50368039,255.7439,11/05.0/2023,2000,g 14.0,4.0
# From MPEC 2023-V39
347P/PANSTARRS,e,11.7553,261.0003,98.4349,3.607676,0.1438344,0.38673820,15.5304,11/05.0/2023,2000,g 15.0,4.0
# From MPEC 2022-ED3
348P/PANSTARRS,e,17.7367,312.9434,135.6874,3.151880,0.1761366,0.30727426,111.0100,11/05.0/2023,2000,g 14.0,4.0
# From MPEC 2022-K19
349P/Lemmon,e,5.4888,331.7560,255.8140,3.577819,0.1456386,0.29846528,330.2567,11/05.0/2023,2000,g 14.0,4.0
# From MPC111775
350P/McNaught,e,7.3637,65.2924,139.8145,4.082403,0.1194897,0.09410217,256.9643,11/05.0/2023,2000,g 14.0,4.0
# From MPC105244
351P/Wiegert-PANSTARRS,e,12.7773,352.6855,283.3552,4.440091,0.1053456,0.29484119,306.5281,11/05.0/2023,2000,g 12.5,4.0
# From MPEC 2023-J29
352P/Skiff,e,21.0146,27.9999,309.4005,6.650278,0.0574704,0.61726533,133.7232,11/05.0/2023,2000,g 13.2,4.0
# From MPEC 2020-AA5
353P/McNaught,e,28.4171,121.5457,230.4743,4.170561,0.1157210,0.47015307,247.8539,11/05.0/2023,2000,g 14.5,4.0
# From MPC105545
354P/LINEAR,e,5.2530,132.7461,320.0196,2.289954,0.2844225,0.12459719,6.2951,11/05.0/2023,2000,g 15.5,4.0
# From MPEC 2023-CD7
355P/LINEAR-NEAT,e,11.0472,51.4347,336.3378,3.468609,0.1525707,0.50793833,337.3552,11/05.0/2023,2000,g 15.5,2.0
# From MPEC 2022-F14
356P/WISE,e,9.6401,160.8238,226.0882,4.155292,0.1163595,0.35608329,249.4805,11/05.0/2023,2000,g 14.0,4.0
# From MPC114609
357P/Hill,e,6.3150,44.5818,1.4211,4.456662,0.1047586,0.43609142,207.6957,11/05.0/2023,2000,g 15.5,4.0
# From MPEC 2023-V39
358P/PANSTARRS,e,11.0602,85.6828,299.7122,3.149414,0.1763435,0.23959522,358.9700,11/05.0/2023,2000,g 18.0,4.0
# From MPC110086
359P/LONEOS,e,10.2655,149.7840,200.2803,4.640721,0.0985884,0.32382449,223.2071,11/05.0/2023,2000,g 13.5,4.0
# From MPC108599
360P/WISE,e,24.1086,2.2189,354.2156,3.698167,0.1385876,0.49925190,313.7536,11/05.0/2023,2000,g 19.5,6.0
# From MPEC 2023-CD7
361P/Spacewatch,e,13.9037,203.2599,219.0285,4.934051,0.0899288,0.43944281,175.2562,11/05.0/2023,2000,g 12.0,4.0
# From MPEC 2017-V13
362P/,e,15.5560,192.4958,53.5720,3.973105,0.1244540,0.27867828,327.8504,11/05.0/2023,2000,g 12.9,2.0
# From MPC114609
363P/Lemmon,e,5.3924,146.7053,340.9022,3.574399,0.1458477,0.51916190,305.4196,11/05.0/2023,2000,g 17.5,4.0
# From MPEC 2023-V39
364P/PANSTARRS,e,12.1378,46.1472,212.0374,2.880366,0.2016195,0.72175689,35.2779,11/05.0/2023,2000,g 17.0,2.0
# From MPC111775
365P/PANSTARRS,e,9.8493,86.6579,67.4287,3.156027,0.1757896,0.58134251,4.6772,11/05.0/2023,2000,g 17.0,4.0
# From MPC114610
366P/Spacewatch,e,8.8570,70.7239,153.0397,3.497865,0.1506605,0.34820619,291.7398,11/05.0/2023,2000,g 15.0,4.0
# From MPC112395
367P/Catalina,e,8.4597,58.6612,172.7716,3.509225,0.1499296,0.27975430,294.9512,11/05.0/2023,2000,g 17.5,2.0
# From MPC114610
368P/NEAT,e,15.4797,257.8836,118.9199,5.531386,0.0757623,0.62658280,142.1249,11/05.0/2023,2000,g 14.0,4.0
# From MPC114610
369P/Hill,e,10.3232,47.2989,13.1706,4.380395,0.1075063,0.55579561,198.2700,11/05.0/2023,2000,g 15.0,4.0
# From MPEC 2021-F20
370P/NEAT,e,19.4231,55.0822,356.7185,6.436052,0.0603635,0.61555755,119.0426,11/05.0/2023,2000,g 13.0,4.0
# From MPC114610
371P/LINEAR-Skiff,e,17.3835,67.2864,308.5474,4.180443,0.1153110,0.47706898,213.8860,11/05.0/2023,2000,g 16.0,4.0
